IRIDIUM 159             
1 43578U 18061K   23244.39979586  .00000302  00000+0  10066-3 0  9994
2 43578  86.3964 122.9497 0002077  87.2642 272.8792 14.34220275267219
IRIDIUM 180             
1 43922U 19002A   23244.46906406  .00000106  00000+0  30891-4 0  9993
2 43922  86.3930  59.7532 0001935  90.2594 269.8823 14.34217646242834
IRIDIUM 176             
1 43923U 19002B   23244.43947461  .00000440  00000+0  65916-4 0  9994
2 43923  86.6061  59.8010 0002362  88.6604 271.4883 14.72259352249219
IRIDIUM 168             
1 43924U 19002C   23243.48597080  .00000095  00000+0  26795-4 0  9995
2 43924  86.3931  60.2132 0002035  90.5010 269.6419 14.34219083242676
IRIDIUM 173             
1 43925U 19002D   23244.45004821  .00000105  00000+0  30370-4 0  9996
2 43925  86.3929  59.7403 0002085  92.5905 267.5529 14.34216775242795
IRIDIUM 169             
1 43926U 19002E   23244.56468362  .00000378  00000+0  11694-3 0  9992
2 43926  86.4173  91.3317 0005435  97.0399 263.1417 14.38618715243639
IRIDIUM 172             
1 43927U 19002F   23244.23435635  .00000185  00000+0  59135-4 0  9993
2 43927  86.3930  59.8354 0002012  90.9714 269.1713 14.34214529242771
IRIDIUM 175             
1 43928U 19002G   23244.43327687  .00000468  00000+0  70283-4 0  9994
2 43928  86.1492  49.3187 0002216  92.2564 267.8906 14.72250220249209
